{"fetched_at":"2026-03-30T06:02:59Z","count":15439,"tles":[{"name":"STARLINK-35362","line1":"1 65888U 25224G   26087.83778909  .00012579  00000+0  43591-3 0  9992","line2":"2 65888  53.1578 282.5768 0001090  78.1978 281.9145 15.30214276 27756","category":"Starlink"}]}